STARLINK-31508          
1 59503U 24071V   26068.18395426 -.00003974  00000+0 -13500-3 0  9992
2 59503  43.0000 342.9980 0001588 245.9634 114.1051 15.27573533108127
TEVEL2-9                
1 63237U 25052AD  26068.70229538  .00018694  00000+0  67240-3 0  9992
2 63237  97.4057 324.3929 0007990 124.2475 235.9522 15.28633834 54816
